AOR-E (EGNOS/PRN 120)   
1 24307U 96053A   18114.34074471 -.00000145  00000-0  00000+0 0  9994
2 24307   3.2613  76.1451 0007305 305.8582 297.4964  1.00272122 79186
CRE (WAAS/PRN 138)      
1 28868U 05036A   18114.21629924 -.00000098  00000-0  00000+0 0  9993
2 28868   0.0554  64.4066 0003191 325.0569 153.2869  1.00271646 46313
CRW (WAAS/PRN 135)      
1 28884U 05041A   18114.49041900  .00000055  00000-0  00000+0 0  9991
2 28884   0.0211 109.8026 0001505 279.5379 226.6747  1.00272212 45780
IOR-W (EGNOS/PRN 126)   
1 28899U 05044A   18114.28161556 -.00000011  00000-0  00000+0 0  9990
2 28899   2.6610  17.7288 0003878  31.3039 328.4550  1.00272005 45666
MTSAT-2 (MSAS/PRN 137)  
1 28937U 06004A   18113.86304112 -.00000265  00000-0  00000+0 0  9991
2 28937   0.0309 108.7012 0003825 297.6942 261.1614  1.00273695 44506
QZS-1 (QZSS/PRN 183)    
1 37158U 10045A   18113.61915965 -.00000143  00000-0  00000+0 0  9998
2 37158  41.0381 154.8280 0754191 270.1040 147.4695  1.00279037 27871
GSAT-8 (GAGAN/PRN 127)  
1 37605U 11022A   18113.88382604  .00000062  00000-0  00000-0 0  9998
2 37605   0.1141 101.2077 0004643 201.2715 282.6004  1.00272392 23376
LUCH 5A (SDCM/PRN 140)  
1 37951U 11074B   18114.58587615 -.00000068  00000-0  00000+0 0  9992
2 37951   1.7925 153.1152 0004247 221.5499 215.7176  1.00271640 23351
SES-5 (EGNOS/PRN 136)   
1 38652U 12036A   18113.89910524  .00000011  00000-0  00000-0 0  9990
2 38652   0.0267 257.9738 0002116 119.7967 162.7659  1.00271466 14662
GSAT-10 (GAGAN/PRN 128) 
1 38779U 12051B   18113.18269242 -.00000187  00000-0  00000-0 0  9998
2 38779   0.0277 160.6692 0003143 241.4136 317.9387  1.00272686 20275
LUCH 5B (SDCM/PRN 125)  
1 38977U 12061A   18113.82678726 -.00000151  00000-0  00000+0 0  9991
2 38977   4.1617  72.4843 0005154 298.2457 122.4761  1.00272705 20330
ASTRA 5B (EGNOS/PRN 123)
1 39617U 14011B   18113.84751348  .00000132  00000-0  00000+0 0  9992
2 39617   0.0473 310.2993 0003740  72.5353 165.6085  1.00269550 15025
LUCH 5V (SDCM/PRN 141)  
1 39727U 14023A   18113.98616837 -.00000295  00000-0  00000-0 0  9997
2 39727   2.0851 299.3235 0003428 100.3720 262.0183  1.00272338532681
GSAT-15 (GAGAN/PRN 139) 
1 41028U 15065A   18113.15402376 -.00000279  00000-0  00000+0 0  9992
2 41028   0.0685  94.5872 0002736 300.2492 325.1789  1.00272023  9011
E 117 W B (WAAS/PRN 131)
1 41589U 16038B   18113.73679019 -.00000034  00000-0  00000+0 0  9998
2 41589   0.0028  64.7184 0000276  52.0920 243.1924  1.00269456  6860
QZS-2 (QZSS/PRN 184)    
1 42738U 17028A   18113.79428773 -.00000220  00000-0  00000+0 0  9997
2 42738  44.2908 285.3179 0732333 271.5895  79.9474  1.00265946  3305
